{
"type": "FeatureCollection",
"name": "内蒙古中西部_7盟市融合研究区",
"crs": { "type": "name", "properties": { "name": "urn:ogc:def:crs:OGC:1.3:CRS84" } },
"features": [
{ "type": "Feature", "properties": { "region_id": 1, "region_name": "内蒙古中西部七盟市研究区", "city_count": 7 }, "geometry": { "type": "Polygon", "coordinates": [ [ [ 111.43158, 39.629158 ], [ 111.452782, 39.623779 ], [ 111.454895, 39.611866 ], [ 111.452698, 39.605625 ], [ 111.444168, 39.60318 ], [ 111.427467, 39.617138 ], [ 111.419052, 39.61079 ], [ 111.433395, 39.585762 ], [ 111.417839, 39.549419 ], [ 111.426178, 39.516476 ], [ 111.41597, 39.500675 ], [ 111.365921, 39.480946 ], [ 111.356476, 39.469975 ], [ 111.353439, 39.45269 ], [ 111.353226, 39.439587 ], [ 111.345665, 39.425201 ], [ 111.329025, 39.418007 ], [ 111.256279, 39.418037 ], [ 111.217278, 39.426716 ], [ 111.203438, 39.424843 ], [ 111.194, 39.414547 ], [ 111.175529, 39.419014 ], [ 111.16021, 39.417103 ], [ 111.122025, 39.391071 ], [ 111.111946, 39.373859 ], [ 111.116402, 39.363735 ], [ 111.106362, 39.356361 ], [ 111.092758, 39.357212 ], [ 111.073471, 39.382446 ], [ 111.090484, 39.401443 ], [ 111.077446, 39.410233 ], [ 111.064972, 39.398323 ], [ 111.056175, 39.399174 ], [ 111.051643, 39.407681 ], [ 111.055328, 39.423561 ], [ 111.046539, 39.427246 ], [ 111.051361, 39.444824 ], [ 111.080208, 39.458607 ], [ 111.090828, 39.479 ], [ 111.10469, 39.487389 ], [ 111.110214, 39.507374 ], [ 111.130127, 39.5224 ], [ 111.13208, 39.534996 ], [ 111.141792, 39.540997 ], [ 111.147079, 39.567566 ], [ 111.125725, 39.582336 ], [ 111.098267, 39.558624 ], [ 111.088302, 39.555241 ], [ 111.043747, 39.556324 ], [ 111.02375, 39.565441 ], [ 110.981071, 39.536407 ], [ 110.919487, 39.51062 ], [ 110.897766, 39.508327 ], [ 110.862755, 39.489971 ], [ 110.834709, 39.453703 ], [ 110.73291, 39.350056 ], [ 110.722214, 39.33287 ], [ 110.721077, 39.306458 ], [ 110.714409, 39.285755 ], [ 110.689278, 39.266861 ], [ 110.673897, 39.272133 ], [ 110.643898, 39.271786 ], [ 110.615333, 39.248753 ], [ 110.608574, 39.251778 ], [ 110.591393, 39.284122 ], [ 110.56427, 39.307964 ], [ 110.566338, 39.337761 ], [ 110.547546, 39.361919 ], [ 110.516251, 39.383514 ], [ 110.505432, 39.382446 ], [ 110.505119, 39.369801 ], [ 110.501663, 39.368206 ], [ 110.495422, 39.365658 ], [ 110.448204, 39.375702 ], [ 110.413849, 39.361324 ], [ 110.407181, 39.357651 ], [ 110.405014, 39.349285 ], [ 110.416443, 39.345478 ], [ 110.421608, 39.336365 ], [ 110.391693, 39.316601 ], [ 110.381416, 39.315021 ], [ 110.366745, 39.329403 ], [ 110.324913, 39.353371 ], [ 110.294205, 39.380672 ], [ 110.252541, 39.404751 ], [ 110.268699, 39.417316 ], [ 110.267799, 39.424496 ], [ 110.231003, 39.423149 ], [ 110.224266, 39.433922 ], [ 110.209908, 39.441551 ], [ 110.200485, 39.433922 ], [ 110.138557, 39.455013 ], [ 110.130028, 39.451874 ], [ 110.114357, 39.436546 ], [ 110.125572, 39.40221 ], [ 110.12899, 39.395165 ], [ 110.166107, 39.37463 ], [ 110.163078, 39.365212 ], [ 110.17469, 39.361252 ], [ 110.211288, 39.283726 ], [ 110.194817, 39.281216 ], [ 110.065101, 39.228367 ], [ 109.989532, 39.208241 ], [ 109.956497, 39.20911 ], [ 109.9365, 39.236061 ], [ 109.899978, 39.26997 ], [ 109.877373, 39.263885 ], [ 109.859985, 39.245625 ], [ 109.867424, 39.235783 ], [ 109.904327, 39.222153 ], [ 109.92614, 39.203583 ], [ 109.956451, 39.188427 ], [ 109.929932, 39.169487 ], [ 109.905304, 39.167591 ], [ 109.893944, 39.148651 ], [ 109.916672, 39.101299 ], [ 109.876892, 39.101299 ], [ 109.875, 39.114555 ], [ 109.859848, 39.122131 ], [ 109.847817, 39.122166 ], [ 109.779129, 39.06826 ], [ 109.761353, 39.059627 ], [ 109.719139, 39.0187 ], [ 109.698265, 39.01696 ], [ 109.686455, 38.988441 ], [ 109.66748, 38.998264 ], [ 109.655472, 38.981319 ], [ 109.679481, 38.965786 ], [ 109.674144, 38.942299 ], [ 109.673607, 38.931499 ], [ 109.662674, 38.920719 ], [ 109.618759, 38.847881 ], [ 109.604042, 38.851601 ], [ 109.552063, 38.807209 ], [ 109.539688, 38.804111 ], [ 109.50721, 38.832352 ], [ 109.446129, 38.786125 ], [ 109.394135, 38.722576 ], [ 109.334442, 38.69754 ], [ 109.320961, 38.666729 ], [ 109.326736, 38.655174 ], [ 109.357544, 38.628216 ], [ 109.349846, 38.618588 ], [ 109.322884, 38.597404 ], [ 109.313255, 38.595478 ], [ 109.278595, 38.62244 ], [ 109.267037, 38.618588 ], [ 109.222748, 38.576221 ], [ 109.16671, 38.513123 ], [ 109.143364, 38.505512 ], [ 109.117477, 38.469475 ], [ 109.043655, 38.429867 ], [ 109.053528, 38.415169 ], [ 109.057587, 38.397404 ], [ 109.025101, 38.365936 ], [ 109.00277, 38.359844 ], [ 108.983993, 38.307568 ], [ 108.96978, 38.293861 ], [ 108.965866, 38.283245 ], [ 108.963531, 38.267967 ], [ 108.968262, 38.249199 ], [ 108.939575, 38.212471 ], [ 108.938164, 38.19482 ], [ 108.938164, 38.177876 ], [ 108.949463, 38.163048 ], [ 109.042352, 38.105775 ], [ 109.060303, 38.093861 ], [ 109.040985, 38.054253 ], [ 109.062492, 38.026314 ], [ 109.044868, 38.02145 ], [ 109.036774, 38.00547 ], [ 109.020805, 37.990395 ], [ 109.01194, 37.970657 ], [ 108.977791, 37.964004 ], [ 108.966705, 37.929417 ], [ 108.941872, 37.922764 ], [ 108.926796, 37.922321 ], [ 108.913048, 37.941834 ], [ 108.911263, 37.958824 ], [ 108.893677, 37.969498 ], [ 108.86982, 38.028519 ], [ 108.830261, 38.049866 ], [ 108.782539, 38.050495 ], [ 108.812813, 38.006344 ], [ 108.815727, 37.978653 ], [ 108.789497, 37.939308 ], [ 108.785126, 37.873733 ], [ 108.794228, 37.787754 ], [ 108.776382, 37.753147 ], [ 108.787377, 37.700088 ], [ 108.781616, 37.691086 ], [ 108.759109, 37.677475 ], [ 108.741829, 37.685852 ], [ 108.711464, 37.682709 ], [ 108.695694, 37.667217 ], [ 108.658585, 37.661243 ], [ 108.615654, 37.648155 ], [ 108.535726, 37.687808 ], [ 108.523583, 37.690433 ], [ 108.481789, 37.678905 ], [ 108.421608, 37.649673 ], [ 108.394791, 37.64431 ], [ 108.348969, 37.642849 ], [ 108.327522, 37.631634 ], [ 108.30962, 37.634064 ], [ 108.283272, 37.647274 ], [ 108.265617, 37.664333 ], [ 108.252495, 37.666649 ], [ 108.179726, 37.638123 ], [ 108.147858, 37.617046 ], [ 108.131516, 37.618832 ], [ 108.079124, 37.650112 ], [ 108.052437, 37.649437 ], [ 108.014412, 37.665905 ], [ 108.009186, 37.676296 ], [ 108.011925, 37.69915 ], [ 108.008446, 37.723938 ], [ 107.983505, 37.752426 ], [ 107.973831, 37.784874 ], [ 107.966171, 37.791878 ], [ 107.875351, 37.813026 ], [ 107.811615, 37.834534 ], [ 107.789307, 37.837624 ], [ 107.768951, 37.83202 ], [ 107.752457, 37.833359 ], [ 107.706093, 37.861977 ], [ 107.68438, 37.885712 ], [ 107.675743, 37.884418 ], [ 107.644386, 37.864403 ], [ 107.555771, 37.89212 ], [ 107.503845, 37.92754 ], [ 107.488022, 37.943363 ], [ 107.45221, 37.940865 ], [ 107.443047, 37.932537 ], [ 107.415566, 37.938366 ], [ 107.405571, 37.947529 ], [ 107.434715, 37.995831 ], [ 107.356987, 38.045242 ], [ 107.328628, 38.090591 ], [ 107.308716, 38.097309 ], [ 107.25856, 38.098137 ], [ 107.227615, 38.1138 ], [ 107.186196, 38.147598 ], [ 107.167297, 38.157757 ], [ 107.136253, 38.158016 ], [ 107.107147, 38.136044 ], [ 107.07418, 38.141754 ], [ 107.037643, 38.125568 ], [ 107.004165, 38.121376 ], [ 106.820021, 38.163304 ], [ 106.809975, 38.157936 ], [ 106.805633, 38.165173 ], [ 106.750313, 38.185173 ], [ 106.717438, 38.209148 ], [ 106.658226, 38.230385 ], [ 106.602463, 38.244797 ], [ 106.557556, 38.262909 ], [ 106.51168, 38.29636 ], [ 106.484649, 38.30439 ], [ 106.47827, 38.319362 ], [ 106.595444, 38.390243 ], [ 106.644753, 38.476097 ], [ 106.657091, 38.601524 ], [ 106.699165, 38.713413 ], [ 106.749824, 38.748901 ], [ 106.799484, 38.817581 ], [ 106.823822, 38.837859 ], [ 106.856545, 38.871265 ], [ 106.911553, 38.911556 ], [ 106.964356, 38.957741 ], [ 106.97184, 39.025147 ], [ 106.965347, 39.051247 ], [ 106.95977, 39.053032 ], [ 106.931168, 39.077278 ], [ 106.860678, 39.089463 ], [ 106.842438, 39.092735 ], [ 106.839783, 39.108154 ], [ 106.852982, 39.139214 ], [ 106.84153, 39.146515 ], [ 106.831657, 39.18116 ], [ 106.787308, 39.235065 ], [ 106.788475, 39.252064 ], [ 106.802536, 39.278961 ], [ 106.796181, 39.300381 ], [ 106.801498, 39.318893 ], [ 106.788017, 39.336441 ], [ 106.788727, 39.358307 ], [ 106.777733, 39.369984 ], [ 106.767525, 39.375523 ], [ 106.754013, 39.376007 ], [ 106.745617, 39.384422 ], [ 106.731361, 39.383606 ], [ 106.726738, 39.377777 ], [ 106.668312, 39.353622 ], [ 106.636742, 39.356708 ], [ 106.625076, 39.364944 ], [ 106.596931, 39.373524 ], [ 106.523857, 39.298542 ], [ 106.502877, 39.270111 ], [ 106.428093, 39.285671 ], [ 106.276062, 39.274345 ], [ 106.269539, 39.26268 ], [ 106.283272, 39.216351 ], [ 106.273659, 39.207085 ], [ 106.274002, 39.200909 ], [ 106.275375, 39.192329 ], [ 106.284988, 39.185806 ], [ 106.289223, 39.161839 ], [ 106.280571, 39.145527 ], [ 106.246559, 39.130791 ], [ 106.185097, 39.143482 ], [ 106.166245, 39.162441 ], [ 106.152573, 39.159286 ], [ 106.141441, 39.152306 ], [ 106.123568, 39.129178 ], [ 106.108124, 39.099903 ], [ 106.091865, 39.083813 ], [ 106.087633, 39.066863 ], [ 106.08313, 39.040398 ], [ 106.084999, 39.026222 ], [ 106.093025, 39.018196 ], [ 106.075531, 38.980026 ], [ 106.069161, 38.972263 ], [ 106.051704, 38.963471 ], [ 106.032722, 38.961746 ], [ 106.019295, 38.954452 ], [ 106.004135, 38.935165 ], [ 105.96463, 38.90456 ], [ 105.968277, 38.890442 ], [ 105.985458, 38.869392 ], [ 105.980873, 38.855709 ], [ 105.940361, 38.822998 ], [ 105.927849, 38.804237 ], [ 105.915344, 38.796959 ], [ 105.904396, 38.78215 ], [ 105.897362, 38.736927 ], [ 105.883951, 38.713416 ], [ 105.882507, 38.696049 ], [ 105.871529, 38.671131 ], [ 105.854675, 38.652454 ], [ 105.846428, 38.631298 ], [ 105.849053, 38.61462 ], [ 105.867294, 38.594997 ], [ 105.853355, 38.582382 ], [ 105.848946, 38.571678 ], [ 105.855125, 38.525726 ], [ 105.83563, 38.48392 ], [ 105.830368, 38.46936 ], [ 105.836128, 38.44268 ], [ 105.822487, 38.425018 ], [ 105.828102, 38.390068 ], [ 105.826523, 38.347763 ], [ 105.857872, 38.298489 ], [ 105.860222, 38.281113 ], [ 105.854952, 38.263601 ], [ 105.840744, 38.242138 ], [ 105.792984, 38.216698 ], [ 105.778938, 38.202232 ], [ 105.771065, 38.186356 ], [ 105.76368, 38.13398 ], [ 105.7677, 38.107246 ], [ 105.778782, 38.080935 ], [ 105.835793, 38.007515 ], [ 105.835533, 38.001305 ], [ 105.819138, 37.976707 ], [ 105.795158, 37.956264 ], [ 105.797684, 37.937839 ], [ 105.790619, 37.909321 ], [ 105.798691, 37.891907 ], [ 105.800964, 37.860611 ], [ 105.767906, 37.819221 ], [ 105.76664, 37.793983 ], [ 105.727524, 37.794487 ], [ 105.659691, 37.767963 ], [ 105.642639, 37.778759 ], [ 105.618507, 37.778259 ], [ 105.611015, 37.753456 ], [ 105.611557, 37.718895 ], [ 105.59662, 37.707008 ], [ 105.569023, 37.70068 ], [ 105.463432, 37.702305 ], [ 105.444819, 37.699181 ], [ 105.357254, 37.71315 ], [ 105.260399, 37.684826 ], [ 105.232025, 37.671188 ], [ 105.200256, 37.669743 ], [ 105.168961, 37.662682 ], [ 105.020172, 37.578518 ], [ 104.918289, 37.570831 ], [ 104.899544, 37.565578 ], [ 104.862694, 37.565613 ], [ 104.828346, 37.553448 ], [ 104.800667, 37.537857 ], [ 104.609215, 37.520508 ], [ 104.428863, 37.513886 ], [ 104.426323, 37.50956 ], [ 104.415321, 37.510349 ], [ 104.403335, 37.463284 ], [ 104.367691, 37.460461 ], [ 104.352905, 37.448444 ], [ 104.336563, 37.442955 ], [ 104.318397, 37.447113 ], [ 104.299271, 37.440502 ], [ 104.289688, 37.432178 ], [ 104.235367, 37.410503 ], [ 104.180878, 37.4062 ], [ 104.076187, 37.471004 ], [ 103.847764, 37.63782 ], [ 103.671044, 37.784279 ], [ 103.398926, 37.861134 ], [ 103.386659, 37.916044 ], [ 103.354614, 38.026272 ], [ 103.356689, 38.055355 ], [ 103.367669, 38.088991 ], [ 103.549507, 38.158318 ], [ 103.521202, 38.217999 ], [ 103.503921, 38.281944 ], [ 103.480614, 38.334072 ], [ 103.460335, 38.360371 ], [ 103.411064, 38.401695 ], [ 103.412323, 38.407509 ], [ 103.559532, 38.481186 ], [ 103.769951, 38.596901 ], [ 103.876305, 38.645123 ], [ 104.031906, 38.891159 ], [ 104.174209, 38.941463 ], [ 104.205711, 39.092949 ], [ 104.052536, 39.29747 ], [ 104.066833, 39.349144 ], [ 104.087021, 39.401318 ], [ 104.086376, 39.418812 ], [ 103.9431, 39.457893 ], [ 103.847931, 39.4599 ], [ 103.342415, 39.32822 ], [ 103.259499, 39.264938 ], [ 103.010201, 39.097759 ], [ 102.800865, 39.14006 ], [ 102.602432, 39.172009 ], [ 102.454231, 39.254185 ], [ 102.35115, 39.230392 ], [ 102.282021, 39.190975 ], [ 101.82872, 39.09206 ], [ 102.070866, 38.890393 ], [ 101.937447, 38.811375 ], [ 101.854851, 38.716969 ], [ 101.773514, 38.658054 ], [ 101.741669, 38.67664 ], [ 101.718674, 38.676739 ], [ 101.669579, 38.68911 ], [ 101.648262, 38.68465 ], [ 101.634323, 38.668175 ], [ 101.603412, 38.648042 ], [ 101.557991, 38.712177 ], [ 101.501808, 38.728619 ], [ 101.416687, 38.76202 ], [ 101.386841, 38.770565 ], [ 101.326767, 38.77557 ], [ 101.307228, 38.785656 ], [ 101.303879, 38.800201 ], [ 101.333175, 38.807587 ], [ 101.340721, 38.823822 ], [ 101.332153, 38.845951 ], [ 101.277603, 38.848068 ], [ 101.236442, 38.85762 ], [ 101.233353, 38.905563 ], [ 101.195503, 38.946262 ], [ 101.226814, 39.020382 ], [ 101.127686, 38.976509 ], [ 100.961761, 38.94294 ], [ 100.969025, 38.965786 ], [ 100.964379, 38.999558 ], [ 100.958046, 39.004921 ], [ 100.900291, 39.029297 ], [ 100.880669, 38.994938 ], [ 100.844963, 39.016654 ], [ 100.82898, 39.026833 ], [ 100.826981, 39.072052 ], [ 100.866707, 39.108871 ], [ 100.83844, 39.205879 ], [ 100.829971, 39.403286 ], [ 100.708305, 39.403595 ], [ 100.661491, 39.391861 ], [ 100.61203, 39.386017 ], [ 100.529533, 39.399002 ], [ 100.496677, 39.399449 ], [ 100.498009, 39.479485 ], [ 100.441719, 39.484356 ], [ 100.323837, 39.507473 ], [ 100.298302, 39.571018 ], [ 100.311051, 39.607262 ], [ 100.24514, 39.683182 ], [ 100.1142, 39.704234 ], [ 100.035164, 39.754623 ], [ 99.964813, 39.766117 ], [ 99.903977, 39.786587 ], [ 99.81382, 39.86377 ], [ 99.657806, 39.887646 ], [ 99.452225, 39.873878 ], [ 99.4416, 39.883775 ], [ 99.445198, 39.892147 ], [ 99.454483, 39.895378 ], [ 99.55143, 39.901875 ], [ 99.693916, 39.959522 ], [ 99.733193, 39.984955 ], [ 99.749924, 40.00518 ], [ 99.840294, 40.011764 ], [ 99.872162, 40.024433 ], [ 99.926567, 40.062439 ], [ 99.9552, 40.150406 ], [ 99.988495, 40.186565 ], [ 100.167947, 40.276595 ], [ 100.167971, 40.419805 ], [ 100.16803, 40.540228 ], [ 100.241018, 40.617629 ], [ 100.235713, 40.715719 ], [ 100.106223, 40.874144 ], [ 100.055372, 40.906645 ], [ 99.677551, 40.932785 ], [ 99.671634, 40.931799 ], [ 99.564569, 40.845746 ], [ 99.173246, 40.857061 ], [ 99.171619, 40.74611 ], [ 99.124078, 40.713959 ], [ 99.099586, 40.674286 ], [ 99.039299, 40.691738 ], [ 98.982971, 40.780914 ], [ 98.789063, 40.703621 ], [ 98.805397, 40.657219 ], [ 98.800865, 40.605248 ], [ 98.713783, 40.659855 ], [ 98.687851, 40.689919 ], [ 98.666893, 40.771023 ], [ 98.568519, 40.745068 ], [ 98.624851, 40.675954 ], [ 98.342468, 40.566399 ], [ 98.330874, 40.917093 ], [ 98.327806, 40.918506 ], [ 98.141731, 40.998966 ], [ 97.971359, 41.095436 ], [ 97.627388, 41.438591 ], [ 97.613335, 41.475281 ], [ 97.845146, 41.654228 ], [ 97.171951, 42.793419 ], [ 97.181304, 42.79232 ], [ 97.22628, 42.787037 ], [ 97.239612, 42.785446 ], [ 97.281944, 42.780396 ], [ 97.313338, 42.775546 ], [ 97.337509, 42.771812 ], [ 97.375153, 42.767085 ], [ 97.383185, 42.766077 ], [ 97.390283, 42.765114 ], [ 97.390442, 42.765093 ], [ 97.395656, 42.764384 ], [ 97.414003, 42.761889 ], [ 97.4487, 42.75695 ], [ 97.483208, 42.751762 ], [ 97.50174, 42.749481 ], [ 97.557854, 42.741318 ], [ 97.614059, 42.734013 ], [ 97.669579, 42.726219 ], [ 97.682434, 42.72477 ], [ 97.723137, 42.718456 ], [ 97.779472, 42.711571 ], [ 97.826088, 42.705162 ], [ 97.826517, 42.705103 ], [ 97.831844, 42.704357 ], [ 97.87336, 42.697826 ], [ 97.886841, 42.695595 ], [ 97.93869, 42.688812 ], [ 97.987503, 42.682003 ], [ 98.03627, 42.674156 ], [ 98.081886, 42.66761 ], [ 98.095596, 42.666382 ], [ 98.115791, 42.662563 ], [ 98.144836, 42.658989 ], [ 98.194679, 42.651615 ], [ 98.204819, 42.651737 ], [ 98.218765, 42.651272 ], [ 98.270852, 42.649684 ], [ 98.276974, 42.649419 ], [ 98.29808, 42.647167 ], [ 98.344719, 42.645088 ], [ 98.350105, 42.645321 ], [ 98.395004, 42.642525 ], [ 98.44381, 42.640434 ], [ 98.481941, 42.639282 ], [ 98.510475, 42.637691 ], [ 98.546066, 42.636696 ], [ 98.556458, 42.634949 ], [ 98.600449, 42.631912 ], [ 98.613373, 42.630955 ], [ 98.654343, 42.629066 ], [ 98.688156, 42.626431 ], [ 98.710976, 42.623959 ], [ 98.767838, 42.61961 ], [ 98.823021, 42.616283 ], [ 98.841955, 42.615026 ], [ 98.880213, 42.612118 ], [ 98.880881, 42.612067 ], [ 98.881592, 42.612003 ], [ 98.936394, 42.606346 ], [ 98.96167, 42.605331 ], [ 99.055412, 42.598766 ], [ 99.087423, 42.596647 ], [ 99.103745, 42.595566 ], [ 99.118872, 42.594593 ], [ 99.165695, 42.591583 ], [ 99.222366, 42.587372 ], [ 99.228734, 42.586643 ], [ 99.23999, 42.585354 ], [ 99.245583, 42.584713 ], [ 99.264786, 42.583908 ], [ 99.285559, 42.582067 ], [ 99.295433, 42.581192 ], [ 99.329483, 42.578217 ], [ 99.367569, 42.576118 ], [ 99.408424, 42.572842 ], [ 99.432579, 42.571285 ], [ 99.453308, 42.569523 ], [ 99.481033, 42.567833 ], [ 99.487281, 42.567519 ], [ 99.503024, 42.56634 ], [ 99.503179, 42.566328 ], [ 99.503186, 42.566327 ], [ 99.504396, 42.566544 ], [ 99.506012, 42.566444 ], [ 99.510895, 42.566765 ], [ 99.530777, 42.569576 ], [ 99.559372, 42.575058 ], [ 99.597908, 42.581589 ], [ 99.607559, 42.58408 ], [ 99.617027, 42.585888 ], [ 99.634987, 42.589096 ], [ 99.648979, 42.591053 ], [ 99.657928, 42.593212 ], [ 99.679909, 42.59655 ], [ 99.693916, 42.598499 ], [ 99.725861, 42.604015 ], [ 99.761726, 42.611511 ], [ 99.849113, 42.626595 ], [ 99.872543, 42.631428 ], [ 99.899086, 42.634861 ], [ 99.927063, 42.639824 ], [ 99.940048, 42.642086 ], [ 99.967567, 42.646282 ], [ 99.979637, 42.647022 ], [ 100.00238, 42.646981 ], [ 100.010523, 42.646647 ], [ 100.010534, 42.646647 ], [ 100.026164, 42.646011 ], [ 100.05, 42.645041 ], [ 100.05008, 42.645032 ], [ 100.051413, 42.644978 ], [ 100.063118, 42.644276 ], [ 100.093491, 42.643185 ], [ 100.098379, 42.643039 ], [ 100.133124, 42.641594 ], [ 100.134376, 42.641541 ], [ 100.147408, 42.640621 ], [ 100.165993, 42.639446 ], [ 100.187683, 42.638451 ], [ 100.212181, 42.638103 ], [ 100.236488, 42.636658 ], [ 100.243462, 42.636044 ], [ 100.250908, 42.636166 ], [ 100.259247, 42.635437 ], [ 100.270889, 42.634644 ], [ 100.270554, 42.641338 ], [ 100.277336, 42.64674 ], [ 100.28363, 42.652412 ], [ 100.287498, 42.655216 ], [ 100.292526, 42.65984 ], [ 100.298607, 42.666168 ], [ 100.304962, 42.671341 ], [ 100.311035, 42.677437 ], [ 100.315468, 42.68058 ], [ 100.322663, 42.687291 ], [ 100.323685, 42.688244 ], [ 100.333282, 42.688133 ], [ 100.347435, 42.687775 ], [ 100.361588, 42.687412 ], [ 100.398849, 42.686611 ], [ 100.419937, 42.685585 ], [ 100.438225, 42.684601 ], [ 100.456223, 42.684307 ], [ 100.502449, 42.683308 ], [ 100.52076, 42.682995 ], [ 100.533966, 42.682266 ], [ 100.55925, 42.681419 ], [ 100.575043, 42.681374 ], [ 100.608521, 42.679867 ], [ 100.630844, 42.679008 ], [ 100.632108, 42.678928 ], [ 100.650764, 42.677746 ], [ 100.692741, 42.675789 ], [ 100.705246, 42.675812 ], [ 100.724556, 42.675438 ], [ 100.747734, 42.675152 ], [ 100.789669, 42.674277 ], [ 100.793327, 42.674201 ], [ 100.824913, 42.673542 ], [ 100.82715, 42.673165 ], [ 100.844335, 42.670273 ], [ 100.849091, 42.669472 ], [ 100.861046, 42.669689 ], [ 100.875414, 42.667061 ], [ 100.902733, 42.662064 ], [ 100.926826, 42.657265 ], [ 100.939148, 42.654716 ], [ 100.950851, 42.652412 ], [ 100.982552, 42.645561 ], [ 100.984644, 42.645099 ], [ 101.003616, 42.64091 ], [ 101.003975, 42.640831 ], [ 101.030251, 42.635609 ], [ 101.053632, 42.631123 ], [ 101.058886, 42.630115 ], [ 101.101677, 42.621906 ], [ 101.1306, 42.616222 ], [ 101.152763, 42.612057 ], [ 101.179832, 42.606628 ], [ 101.237648, 42.595211 ], [ 101.276062, 42.587204 ], [ 101.289268, 42.584373 ], [ 101.301575, 42.580956 ], [ 101.342659, 42.572792 ], [ 101.353325, 42.570385 ], [ 101.368034, 42.567307 ], [ 101.406311, 42.559814 ], [ 101.41571, 42.557377 ], [ 101.424576, 42.555676 ], [ 101.432471, 42.553912 ], [ 101.460083, 42.547741 ], [ 101.500633, 42.539143 ], [ 101.511772, 42.537102 ], [ 101.555847, 42.528168 ], [ 101.563214, 42.52499 ], [ 101.567978, 42.522934 ], [ 101.579636, 42.523727 ], [ 101.593254, 42.522884 ], [ 101.616699, 42.520889 ], [ 101.627182, 42.519924 ], [ 101.684586, 42.514626 ], [ 101.691902, 42.513996 ], [ 101.714874, 42.511372 ], [ 101.732927, 42.510125 ], [ 101.734554, 42.510013 ], [ 101.741341, 42.509544 ], [ 101.747117, 42.509158 ], [ 101.750412, 42.508938 ], [ 101.757477, 42.508301 ], [ 101.768059, 42.507713 ], [ 101.780182, 42.506035 ], [ 101.789253, 42.505424 ], [ 101.790751, 42.505015 ], [ 101.794364, 42.504028 ], [ 101.801552, 42.502064 ], [ 101.805422, 42.498936 ], [ 101.806305, 42.498222 ], [ 101.816856, 42.489075 ], [ 101.825905, 42.4799 ], [ 101.831062, 42.473263 ], [ 101.841103, 42.464031 ], [ 101.850838, 42.455036 ], [ 101.858192, 42.447716 ], [ 101.867897, 42.438267 ], [ 101.875237, 42.430714 ], [ 101.884041, 42.421745 ], [ 101.89048, 42.414909 ], [ 101.898361, 42.406193 ], [ 101.90789, 42.397209 ], [ 101.914665, 42.389706 ], [ 101.92292, 42.381676 ], [ 101.928151, 42.375382 ], [ 101.928238, 42.375278 ], [ 101.928416, 42.375115 ], [ 101.936783, 42.367458 ], [ 101.943848, 42.361057 ], [ 101.950279, 42.354218 ], [ 101.954811, 42.349537 ], [ 101.961006, 42.342545 ], [ 101.966148, 42.337402 ], [ 101.972321, 42.331154 ], [ 101.979912, 42.324917 ], [ 101.985153, 42.319038 ], [ 101.992093, 42.310795 ], [ 102.0, 42.301403 ], [ 102.068161, 42.230381 ], [ 102.073738, 42.221767 ], [ 102.0914, 42.221733 ], [ 102.446739, 42.1422 ], [ 102.530834, 42.15902 ], [ 102.540041, 42.160573 ], [ 102.619347, 42.152924 ], [ 102.635033, 42.15256 ], [ 102.643539, 42.152363 ], [ 102.678058, 42.15171 ], [ 102.7099, 42.151108 ], [ 102.71131, 42.150541 ], [ 102.925293, 42.064475 ], [ 102.999229, 42.034737 ], [ 103.019524, 42.026329 ], [ 103.204948, 41.961029 ], [ 103.379486, 41.894198 ], [ 103.389175, 41.890488 ], [ 103.413243, 41.881281 ], [ 103.41555, 41.880398 ], [ 103.434344, 41.877864 ], [ 103.44791, 41.876036 ], [ 103.451714, 41.875523 ], [ 103.7425, 41.823925 ], [ 103.835381, 41.805172 ], [ 103.854294, 41.799141 ], [ 103.866196, 41.800957 ], [ 104.051247, 41.803925 ], [ 104.076569, 41.802975 ], [ 104.092575, 41.806602 ], [ 104.116295, 41.810596 ], [ 104.132004, 41.812836 ], [ 104.189514, 41.822567 ], [ 104.248909, 41.830544 ], [ 104.293175, 41.836924 ], [ 104.305573, 41.838711 ], [ 104.362198, 41.849575 ], [ 104.415367, 41.858555 ], [ 104.472023, 41.86644 ], [ 104.527061, 41.873165 ], [ 104.527306, 41.830994 ], [ 104.522774, 41.743622 ], [ 104.521187, 41.660183 ], [ 104.63401, 41.650726 ], [ 104.685669, 41.643585 ], [ 104.800156, 41.650417 ], [ 104.904488, 41.654392 ], [ 104.919655, 41.652527 ], [ 104.962097, 41.621601 ], [ 105.005875, 41.581402 ], [ 105.207352, 41.736053 ], [ 105.226723, 41.74929 ], [ 105.229717, 41.74923 ], [ 105.229842, 41.749228 ], [ 105.287376, 41.748081 ], [ 105.317345, 41.76128 ], [ 105.33577, 41.771145 ], [ 105.360931, 41.781166 ], [ 105.380653, 41.795231 ], [ 105.429573, 41.816181 ], [ 105.480118, 41.838741 ], [ 105.585251, 41.886772 ], [ 105.62973, 41.905346 ], [ 105.671761, 41.923122 ], [ 105.714775, 41.938488 ], [ 105.737183, 41.947418 ], [ 105.883194, 41.991302 ], [ 105.903397, 41.998219 ], [ 106.008499, 42.030228 ], [ 106.057152, 42.047775 ], [ 106.07811, 42.054661 ], [ 106.339928, 42.147614 ], [ 106.367462, 42.159271 ], [ 106.512848, 42.207939 ], [ 106.578232, 42.22971 ], [ 106.608322, 42.240108 ], [ 106.780853, 42.289658 ], [ 106.993805, 42.311447 ], [ 107.023407, 42.314259 ], [ 107.045799, 42.317284 ], [ 107.265295, 42.362051 ], [ 107.266273, 42.362251 ], [ 107.270142, 42.371197 ], [ 107.287931, 42.405124 ], [ 107.288231, 42.405697 ], [ 107.296802, 42.409907 ], [ 107.298576, 42.410778 ], [ 107.313428, 42.414815 ], [ 107.325209, 42.418016 ], [ 107.33799, 42.42149 ], [ 107.390427, 42.437492 ], [ 107.460503, 42.456879 ], [ 107.488281, 42.455399 ], [ 107.496001, 42.454988 ], [ 107.496162, 42.454979 ], [ 107.532079, 42.433516 ], [ 107.56916, 42.411358 ], [ 107.594608, 42.41164 ], [ 107.638342, 42.412125 ], [ 107.730896, 42.413151 ], [ 107.777466, 42.410709 ], [ 107.799816, 42.409935 ], [ 107.826721, 42.409004 ], [ 107.859259, 42.406678 ], [ 107.876251, 42.405464 ], [ 107.921204, 42.402946 ], [ 107.933945, 42.402046 ], [ 107.956841, 42.411064 ], [ 107.981361, 42.411354 ], [ 108.0, 42.421616 ], [ 108.011497, 42.427399 ], [ 108.016724, 42.431339 ], [ 108.029068, 42.431973 ], [ 108.083557, 42.434258 ], [ 108.102516, 42.437519 ], [ 108.13488, 42.442974 ], [ 108.182865, 42.451425 ], [ 108.188489, 42.452234 ], [ 108.18849, 42.452234 ], [ 108.190531, 42.452635 ], [ 108.232628, 42.458477 ], [ 108.242821, 42.458035 ], [ 108.253716, 42.455952 ], [ 108.253738, 42.455921 ], [ 108.292885, 42.436516 ], [ 108.351059, 42.436192 ], [ 108.409012, 42.439175 ], [ 108.465874, 42.441669 ], [ 108.527573, 42.4412 ], [ 108.582794, 42.432045 ], [ 108.639915, 42.421497 ], [ 108.685822, 42.413551 ], [ 108.699501, 42.411579 ], [ 108.711777, 42.412674 ], [ 108.753319, 42.412834 ], [ 108.79335, 42.413338 ], [ 108.802612, 42.409466 ], [ 108.824921, 42.40435 ], [ 108.84021, 42.393986 ], [ 108.892654, 42.413258 ], [ 108.945061, 42.433758 ], [ 108.95813, 42.439109 ], [ 108.977669, 42.447109 ], [ 108.993729, 42.451191 ], [ 108.998381, 42.449575 ], [ 109.004275, 42.447527 ], [ 109.006973, 42.44659 ], [ 109.019951, 42.456612 ], [ 109.03698, 42.455051 ], [ 109.091995, 42.450481 ], [ 109.109253, 42.448865 ], [ 109.149307, 42.445114 ], [ 109.208832, 42.440201 ], [ 109.256432, 42.436581 ], [ 109.268379, 42.434841 ], [ 109.285637, 42.433876 ], [ 109.29953, 42.438038 ], [ 109.314949, 42.439945 ], [ 109.329575, 42.440781 ], [ 109.377014, 42.445675 ], [ 109.38052, 42.446165 ], [ 109.388222, 42.447243 ], [ 109.398851, 42.448328 ], [ 109.427338, 42.451237 ], [ 109.444374, 42.452976 ], [ 109.480075, 42.45662 ], [ 109.480705, 42.456684 ], [ 109.485448, 42.459728 ], [ 109.49321, 42.464709 ], [ 109.497125, 42.467221 ], [ 109.498878, 42.468346 ], [ 109.510719, 42.469341 ], [ 109.534481, 42.470395 ], [ 109.538345, 42.470566 ], [ 109.550518, 42.478741 ], [ 109.55584, 42.482315 ], [ 109.569603, 42.491137 ], [ 109.581058, 42.49848 ], [ 109.58383, 42.500257 ], [ 109.592552, 42.505848 ], [ 109.636215, 42.533237 ], [ 109.661725, 42.547834 ], [ 109.678017, 42.557156 ], [ 109.693186, 42.563312 ], [ 109.695914, 42.564418 ], [ 109.727417, 42.577202 ], [ 109.777588, 42.593483 ], [ 109.827782, 42.609741 ], [ 109.876839, 42.626785 ], [ 109.900299, 42.634022 ], [ 109.927422, 42.635067 ], [ 109.931809, 42.63523 ], [ 109.985634, 42.63723 ], [ 110.043243, 42.640182 ], [ 110.089584, 42.642029 ], [ 110.097625, 42.641129 ], [ 110.102097, 42.640629 ], [ 110.109917, 42.647923 ], [ 110.12074, 42.659452 ], [ 110.122193, 42.661 ], [ 110.13311, 42.67263 ], [ 110.180092, 42.688244 ], [ 110.230453, 42.704739 ], [ 110.282021, 42.719982 ], [ 110.331192, 42.735958 ], [ 110.333572, 42.736454 ], [ 110.341949, 42.739956 ], [ 110.353255, 42.745111 ], [ 110.379047, 42.756871 ], [ 110.382133, 42.758278 ], [ 110.386056, 42.760241 ], [ 110.389938, 42.762184 ], [ 110.397505, 42.765347 ], [ 110.430756, 42.779243 ], [ 110.434301, 42.786359 ], [ 110.436325, 42.790421 ], [ 110.451127, 42.815028 ], [ 110.455132, 42.821686 ], [ 110.463135, 42.836876 ], [ 110.478313, 42.845909 ], [ 110.492096, 42.854111 ], [ 110.531649, 42.879251 ], [ 110.536057, 42.882053 ], [ 110.548141, 42.88886 ], [ 110.583504, 42.908779 ], [ 110.593731, 42.914976 ], [ 110.594261, 42.915297 ], [ 110.625359, 42.934139 ], [ 110.637587, 42.952022 ], [ 110.648766, 42.968372 ], [ 110.655121, 42.977272 ], [ 110.662375, 42.988762 ], [ 110.673233, 43.005962 ], [ 110.678162, 43.01231 ], [ 110.682408, 43.018518 ], [ 110.683075, 43.019493 ], [ 110.681805, 43.028319 ], [ 110.680916, 43.0345 ], [ 110.681393, 43.035029 ], [ 110.695801, 43.051037 ], [ 110.704685, 43.060498 ], [ 110.730057, 43.087517 ], [ 110.747264, 43.092527 ], [ 110.763412, 43.097229 ], [ 110.778801, 43.111946 ], [ 110.786234, 43.119384 ], [ 110.813728, 43.1469 ], [ 110.838331, 43.168789 ], [ 110.852173, 43.181103 ], [ 110.871039, 43.198697 ], [ 110.888069, 43.214577 ], [ 110.925438, 43.249565 ], [ 110.963463, 43.283691 ], [ 110.989426, 43.306438 ], [ 111.000404, 43.315632 ], [ 111.013672, 43.327869 ], [ 111.034096, 43.337181 ], [ 111.041672, 43.341156 ], [ 111.049858, 43.344276 ], [ 111.057396, 43.349972 ], [ 111.062569, 43.35564 ], [ 111.089554, 43.362873 ], [ 111.13533, 43.375065 ], [ 111.141283, 43.377095 ], [ 111.209917, 43.273851 ], [ 111.372505, 43.17999 ], [ 111.496288, 43.176472 ], [ 111.611926, 43.05242 ], [ 111.651088, 43.022133 ], [ 111.745231, 42.985485 ], [ 111.848932, 42.838115 ], [ 111.851484, 42.816361 ], [ 111.900359, 42.744971 ], [ 111.930117, 42.703295 ], [ 112.019157, 42.600935 ], [ 112.023085, 42.58224 ], [ 112.173396, 42.532605 ], [ 112.171342, 42.509063 ], [ 112.247437, 42.480978 ], [ 112.390963, 42.385285 ], [ 112.581925, 42.345358 ], [ 112.619977, 42.332041 ], [ 112.647795, 42.314149 ], [ 112.630048, 42.278579 ], [ 112.683018, 42.252625 ], [ 112.730991, 42.142478 ], [ 112.782879, 42.136788 ], [ 112.821018, 42.118598 ], [ 112.849275, 42.115172 ], [ 112.942364, 42.007444 ], [ 112.957142, 41.996472 ], [ 112.994818, 41.986512 ], [ 113.03515, 41.983838 ], [ 113.051402, 41.969931 ], [ 113.052652, 41.957338 ], [ 113.071832, 41.932078 ], [ 113.077906, 41.930874 ], [ 113.119831, 41.951815 ], [ 113.134344, 41.940659 ], [ 113.156387, 41.942006 ], [ 113.164761, 41.948096 ], [ 113.162921, 41.962004 ], [ 113.14749, 41.964099 ], [ 113.141249, 41.976296 ], [ 113.157364, 41.98818 ], [ 113.213092, 42.012661 ], [ 113.255502, 42.047433 ], [ 113.27753, 42.070042 ], [ 113.282064, 42.082172 ], [ 113.324406, 42.117274 ], [ 113.370087, 42.141169 ], [ 113.526685, 42.132837 ], [ 113.549305, 42.123414 ], [ 113.559032, 42.116951 ], [ 113.565973, 42.129923 ], [ 113.614285, 42.114101 ], [ 113.625333, 42.102914 ], [ 113.674501, 42.117338 ], [ 113.688044, 42.127735 ], [ 113.702402, 42.127995 ], [ 113.726901, 42.099913 ], [ 113.736327, 42.081616 ], [ 113.750344, 42.074749 ], [ 113.769912, 42.07934 ], [ 113.775898, 42.065249 ], [ 113.794545, 42.061074 ], [ 113.806836, 42.065216 ], [ 113.833209, 42.054467 ], [ 113.862772, 42.059338 ], [ 113.8887, 42.056341 ], [ 113.903176, 42.021865 ], [ 113.908391, 41.976495 ], [ 113.922612, 41.97458 ], [ 113.980492, 41.951749 ], [ 113.977382, 41.963345 ], [ 114.012653, 41.989562 ], [ 114.021547, 41.963186 ], [ 114.036063, 41.960107 ], [ 114.050547, 41.948028 ], [ 114.060658, 41.966098 ], [ 114.062234, 41.997122 ], [ 114.068833, 41.998197 ], [ 114.075761, 41.988056 ], [ 114.098751, 41.981224 ], [ 114.058193, 42.041742 ], [ 114.086753, 42.063142 ], [ 114.093087, 42.123733 ], [ 114.134345, 42.114488 ], [ 114.164281, 42.117739 ], [ 114.164849, 42.123651 ], [ 114.177847, 42.128882 ], [ 114.202329, 42.128007 ], [ 114.206654, 42.123335 ], [ 114.219814, 42.147484 ], [ 114.251408, 42.173902 ], [ 114.288992, 42.188788 ], [ 114.314916, 42.17917 ], [ 114.313484, 42.187567 ], [ 114.365092, 42.155607 ], [ 114.369015, 42.149812 ], [ 114.371075, 42.107146 ], [ 114.400009, 42.097684 ], [ 114.439994, 42.096872 ], [ 114.451448, 42.107546 ], [ 114.472575, 42.112132 ], [ 114.472162, 42.125931 ], [ 114.459192, 42.167535 ], [ 114.440694, 42.169122 ], [ 114.4076, 42.186591 ], [ 114.398118, 42.198145 ], [ 114.471584, 42.216977 ], [ 114.486579, 42.216995 ], [ 114.499158, 42.22644 ], [ 114.508114, 42.227866 ], [ 114.529957, 42.240915 ], [ 114.542764, 42.262185 ], [ 114.553071, 42.268888 ], [ 114.560945, 42.288605 ], [ 114.569593, 42.295096 ], [ 114.643465, 42.267556 ], [ 114.665232, 42.278887 ], [ 114.677952, 42.271843 ], [ 114.682953, 42.26244 ], [ 114.663206, 42.247135 ], [ 114.68074, 42.218871 ], [ 114.670349, 42.196115 ], [ 114.752147, 42.21601 ], [ 114.802826, 42.198297 ], [ 114.790588, 42.179332 ], [ 114.796486, 42.174486 ], [ 114.800975, 42.145901 ], [ 114.786049, 42.146553 ], [ 114.781006, 42.127911 ], [ 114.7603, 42.117088 ], [ 114.706528, 42.112415 ], [ 114.68193, 42.119148 ], [ 114.660065, 42.114002 ], [ 114.640122, 42.102425 ], [ 114.618897, 42.117218 ], [ 114.582878, 42.12944 ], [ 114.504723, 42.114002 ], [ 114.503761, 42.098885 ], [ 114.4925, 42.083126 ], [ 114.496681, 42.075729 ], [ 114.49395, 42.063831 ], [ 114.485268, 42.05611 ], [ 114.471436, 42.060616 ], [ 114.457932, 42.034565 ], [ 114.460182, 42.022667 ], [ 114.478836, 42.011086 ], [ 114.476906, 41.996292 ], [ 114.503601, 41.978928 ], [ 114.502632, 41.970242 ], [ 114.479477, 41.964455 ], [ 114.469833, 41.948696 ], [ 114.45311, 41.949017 ], [ 114.413551, 41.93969 ], [ 114.372116, 41.954197 ], [ 114.35627, 41.94566 ], [ 114.344078, 41.951149 ], [ 114.339813, 41.945053 ], [ 114.342857, 41.93042 ], [ 114.33493, 41.924324 ], [ 114.318642, 41.926121 ], [ 114.322128, 41.911522 ], [ 114.29409, 41.888359 ], [ 114.289276, 41.869862 ], [ 114.276695, 41.853088 ], [ 114.232658, 41.832119 ], [ 114.221344, 41.815105 ], [ 114.194222, 41.789757 ], [ 114.195717, 41.760879 ], [ 114.205673, 41.75341 ], [ 114.205177, 41.74345 ], [ 114.199164, 41.736355 ], [ 114.22786, 41.706886 ], [ 114.22786, 41.69495 ], [ 114.211067, 41.697029 ], [ 114.207993, 41.682163 ], [ 114.25071, 41.620762 ], [ 114.218887, 41.61591 ], [ 114.219429, 41.606468 ], [ 114.228325, 41.593258 ], [ 114.21376, 41.580044 ], [ 114.213173, 41.573753 ], [ 114.215271, 41.558922 ], [ 114.223511, 41.544498 ], [ 114.222603, 41.511835 ], [ 114.206788, 41.509018 ], [ 114.194016, 41.516525 ], [ 114.130081, 41.527626 ], [ 114.117447, 41.534134 ], [ 114.098686, 41.534901 ], [ 114.075333, 41.528393 ], [ 114.031304, 41.530308 ], [ 114.012207, 41.517124 ], [ 113.969162, 41.502525 ], [ 113.953308, 41.487793 ], [ 113.924225, 41.48386 ], [ 113.911255, 41.45203 ], [ 113.901039, 41.444168 ], [ 113.875099, 41.435131 ], [ 113.863068, 41.412811 ], [ 113.866631, 41.408398 ], [ 113.909546, 41.401089 ], [ 113.939117, 41.387329 ], [ 113.928284, 41.378105 ], [ 113.927994, 41.354538 ], [ 113.91394, 41.337265 ], [ 113.919502, 41.331116 ], [ 113.917747, 41.323357 ], [ 113.89184, 41.312822 ], [ 113.909714, 41.290119 ], [ 113.928635, 41.292164 ], [ 113.948059, 41.282963 ], [ 113.944481, 41.258423 ], [ 113.95771, 41.238232 ], [ 113.96225, 41.236034 ], [ 113.965172, 41.239841 ], [ 113.970039, 41.252289 ], [ 113.968544, 41.263264 ], [ 113.978348, 41.266632 ], [ 113.997673, 41.251408 ], [ 114.004295, 41.230816 ], [ 113.994072, 41.183784 ], [ 113.990486, 41.179695 ], [ 113.951637, 41.169468 ], [ 113.933746, 41.17765 ], [ 113.91227, 41.171001 ], [ 113.90448, 41.164181 ], [ 113.893867, 41.138798 ], [ 113.87291, 41.126526 ], [ 113.875587, 41.103184 ], [ 113.831963, 41.106701 ], [ 113.817322, 41.09938 ], [ 113.816444, 41.093231 ], [ 113.834305, 41.073029 ], [ 113.854797, 41.076248 ], [ 113.861534, 41.068344 ], [ 113.861824, 41.058392 ], [ 113.879097, 41.05312 ], [ 113.893501, 41.037483 ], [ 113.908081, 41.03643 ], [ 113.91452, 41.031307 ], [ 113.915695, 41.017986 ], [ 113.922722, 41.011105 ], [ 113.948776, 41.002617 ], [ 113.954048, 40.990612 ], [ 113.968102, 40.992367 ], [ 113.973084, 40.972458 ], [ 113.973373, 40.942596 ], [ 113.986252, 40.936447 ], [ 113.99247, 40.944729 ], [ 114.039444, 40.931679 ], [ 114.045692, 40.926201 ], [ 114.048615, 40.9221 ], [ 114.038666, 40.920929 ], [ 114.033394, 40.915073 ], [ 114.033981, 40.902191 ], [ 114.04393, 40.891067 ], [ 114.044464, 40.866169 ], [ 114.06723, 40.852589 ], [ 114.036079, 40.827824 ], [ 114.046066, 40.823032 ], [ 114.051659, 40.807854 ], [ 114.072029, 40.787884 ], [ 114.095192, 40.793877 ], [ 114.097587, 40.7771 ], [ 114.0924, 40.766716 ], [ 114.09639, 40.755932 ], [ 114.124878, 40.743649 ], [ 114.106003, 40.733357 ], [ 114.085419, 40.738934 ], [ 114.05368, 40.720062 ], [ 114.052391, 40.702045 ], [ 114.061981, 40.690769 ], [ 114.065872, 40.677593 ], [ 114.063614, 40.65876 ], [ 114.04985, 40.626831 ], [ 114.035004, 40.607239 ], [ 114.044144, 40.591579 ], [ 114.07003, 40.574322 ], [ 114.075096, 40.563953 ], [ 114.070007, 40.540905 ], [ 114.0551, 40.52739 ], [ 114.004715, 40.514561 ], [ 113.971962, 40.522228 ], [ 113.946094, 40.514869 ], [ 113.924385, 40.492275 ], [ 113.88356, 40.465378 ], [ 113.856819, 40.455357 ], [ 113.844353, 40.459473 ], [ 113.826012, 40.48587 ], [ 113.787979, 40.516727 ], [ 113.783874, 40.501255 ], [ 113.762055, 40.475803 ], [ 113.673721, 40.442799 ], [ 113.661194, 40.422638 ], [ 113.630379, 40.407742 ], [ 113.577423, 40.370174 ], [ 113.553078, 40.347542 ], [ 113.478909, 40.33199 ], [ 113.380402, 40.317764 ], [ 113.337372, 40.320866 ], [ 113.31633, 40.317493 ], [ 113.302933, 40.32732 ], [ 113.277664, 40.376759 ], [ 113.244346, 40.412167 ], [ 113.215332, 40.402245 ], [ 113.163605, 40.394642 ], [ 113.080147, 40.374352 ], [ 113.026085, 40.36763 ], [ 112.974069, 40.353776 ], [ 112.886299, 40.325386 ], [ 112.883812, 40.304146 ], [ 112.865311, 40.257229 ], [ 112.838333, 40.202843 ], [ 112.73764, 40.166225 ], [ 112.721825, 40.167042 ], [ 112.617771, 40.235848 ], [ 112.557572, 40.256935 ], [ 112.504776, 40.268013 ], [ 112.471176, 40.284901 ], [ 112.457863, 40.297092 ], [ 112.449204, 40.29874 ], [ 112.405434, 40.291893 ], [ 112.341942, 40.256088 ], [ 112.307003, 40.252504 ], [ 112.300613, 40.249874 ], [ 112.28125, 40.225265 ], [ 112.284714, 40.211079 ], [ 112.280472, 40.205383 ], [ 112.220406, 40.167671 ], [ 112.213142, 40.156036 ], [ 112.217133, 40.132481 ], [ 112.214699, 40.127232 ], [ 112.178307, 40.090096 ], [ 112.153534, 40.046059 ], [ 112.135246, 40.0308 ], [ 112.115982, 40.002964 ], [ 112.108362, 39.984449 ], [ 112.10352, 39.978268 ], [ 112.078545, 39.948448 ], [ 112.069603, 39.925438 ], [ 112.008118, 39.83585 ], [ 111.964127, 39.787228 ], [ 111.956169, 39.765797 ], [ 111.951073, 39.703751 ], [ 111.943283, 39.688503 ], [ 111.93, 39.677628 ], [ 111.919708, 39.65704 ], [ 111.925865, 39.632545 ], [ 111.919289, 39.61533 ], [ 111.861664, 39.608749 ], [ 111.827973, 39.611969 ], [ 111.760559, 39.589947 ], [ 111.711548, 39.603489 ], [ 111.701035, 39.617077 ], [ 111.674965, 39.630928 ], [ 111.639564, 39.637779 ], [ 111.602173, 39.634789 ], [ 111.536209, 39.655262 ], [ 111.48661, 39.658478 ], [ 111.430701, 39.642785 ], [ 111.43158, 39.629158 ] ] ] } }
]
}
